First least square run :: 
36390.8318153  4.81210535629e-08  3.09360141151e-15  0.66  27.7096971058  
Convergence moindre carre incomplete -> relance
Second least square run :: 
36516.9201964  0.0602692576336  3.06205157772e-08  0.66  26.9825804269  
 
 Sommes des résidus par camera : 
              camera               sigma                   s                   n                 Sum        Sum expected                  s'
              ITSI02      0.941463285631      0.434359297916                  10       18.3486122917       3.87669772871       2.00327477699
              ITSI01      0.575907598545      0.324897251694                   6       8.63396813517       2.71846147082      0.975412372252
 Sum Expected Total :: 6.59515919953
 
 Sommes des résidus par camera 2 : 
              camera               sigma                   s                   n                 Sum        Sum expected                  s'
              ITSI02      0.941463285631       2.04982385385                  10       1.18593025806        1.1859303008                   0
              ITSI01      0.575907598545       1.02809898361                   6       1.24849393241       1.24849393605                   0
 Sum Expected Total :: 2.43442423686
 
Parametre  de la meilleure solution par moindre carré :: 
 V  = 36516.9201438 m/s
 A  = 0.0602692580301 m²/kg
 B  = 3.06205160723e-08 m²/J
 mu = 0.66
 
S_min : 2.43442419048
 
 
 Estimation Parametre par Moyenne pondérée (si cette estimation est très différente de la précédente, cela peut être le signe d'un problème) :: 
 V  = 37011.337597 m/s
 A  = 0.482981689221 m²/kg
 B  = 1.38118472305e-08 m²/J
 
 Parametre Maria :: 
 gamma = 32.5722651019°
 Alpha = 517.003450883
 Beta  = 115.173845064
 
Final Mass : 7.65983645492e-146 %
 
         rho(Kg/m³)               Re(m)              Me(Kg)               Rf(m)              Mf(Kg)
                1500    0.00829610345875    0.00358758621458   7.59067956586e-52  2.74803236716e-150
                2500    0.00497766207525    0.00129153103725   4.55440773952e-52  9.89291652177e-151
                3500    0.00355547291089    0.00065894440676   3.25314838537e-52  5.04740638866e-151
                4500    0.00276536781958   0.000398620690509   2.53022652195e-52  3.05336929684e-151
                5500    0.00226257367057    0.00026684525563   2.07018533614e-52   2.0439910169e-151
                6500    0.00191448541356   0.000191054887167   1.75169528443e-52  1.46344918961e-151
 
Matrix of Covariance : 
    |                   Ve |                    A |                    B | 
Ve  |        518646.120727 |        376.301060729 |   -8.63643329024e-06 | 
A   |        376.301060729 |       0.318434374662 |   -7.71019109654e-09 | 
B   |   -8.63643329024e-06 |   -7.71019109654e-09 |    3.56935507062e-16 | 
 
 
 Time shift :: 
ITSI02 : 0.00240152406867 s
ITSI01 : -0.00240152406867 s
 
 
 Transposed Jacobian Matrix :: 
       |             Ve(m/s) |                    A |                    B | 
dx1(m) |      -1.00838481105 |   -0.000489754308368 |    2.88981940744e-12 | 
dx2(m) |       -1.2921528543 |   -0.000601503268456 |   -2.98726056829e-10 | 
dx3(m) |     -0.969622088749 |   -0.000602002150734 |   -3.06147021203e-10 | 
dx4(m) |      -1.03118106879 |   -0.000602691573338 |   -2.99160197548e-10 | 
 
 Propagation des Variances :: 
        |              Ve(m/s) |                    A |                    B | 
Ve(m/s) |        8859.59688286 |        4.55295402844 |    1.69863006208e-06 | 
A       |        4.55295402844 |      0.0024571079106 |    1.00885790177e-09 | 
B       |    1.69863006208e-06 |    1.00885790177e-09 |    4.99652262352e-16 | 
 
 Variances Totales :: 
        |              Ve(m/s) |                    A |                    B | 
Ve(m/s) |         527505.71761 |        380.854014758 |   -6.93780322816e-06 | 
A       |        380.854014758 |       0.320891482573 |   -6.70133319478e-09 | 
B       |   -6.93780322816e-06 |   -6.70133319478e-09 |    8.56587769414e-16 | 
 
sigma Ve : 726.295888471 m/s
sigma A  : 0.566472843632 m^2/Kg
sigma B  : 2.92675207254e-08 m^2/J
 
sigma Me (relatif) : 2819.71039041 %
sigma Mf (relatif) : 320046.427821 %
 
A/B : 1.96826395375 MJ/Kg
sigma A/B : 18.5951920773 MJ/Kg
 
    Remarque : A/B decrit la solidité du bolide. Il doit être entre 50 et 8000 MJ/Kg 
 
 
 
 
------------------------------------------------------------------------ 
------------------------------------------------------------------------ 
------------------------------------------------------------------------ 
 
 
  ORBITE :: 
Perifocal Distance              :: 0.556832982788 AU
Eccentricity                    :: 0.964664542746
Inclination                     :: 41.3062031082 °
Longitude of the ascending node :: 99.8073435672 °
Argument of periapsis           :: 83.2983866844 °
Mean anomaly at epoch           :: 359.357224692 °
Epoch                           :: 2019-12-29T13:56:13.166
Semi-major axe                  :: 15.7584767841 AU
 
Moon near encounter             :: 408841.932934km   ( 235.318253099 moon radius )
Tisserand_J                     :: 1.01907961409
Tisserand_S                     :: 1.29409413861
Tisserand_U                     :: 1.90660892239
Tisserand_N                     :: 2.59709444006
 
 
  Transposed Jacobian Matrix  :: 
        |        Per dist(AU) |                  ecc |                  Inc |                 Long |                  Arg |              Mean an |                Epoch |                    a | 
dx1(km) |   -0.00154410242446 |     -0.0564914789705 |        2.97036369264 |   -0.000157596854365 |         1.8008716066 |       -2.15300129463 |       -191.778778791 |          -9.71135267 |  
dx2(km) |     0.0522055021223 |      0.0529500966838 |       0.223255863187 |   -1.05737862257e-06 |       -7.50118545644 |       -359.546442611 |        66.0750706196 |       -50.3341765781 |  
dx3(km) |    0.00329716903601 |      0.0580186484319 |        -2.9958984283 |    0.000193189357427 |       -1.85810929555 |       -359.674539876 |       -74.9599850178 |       -40.4520989216 |  
dx4(km) |    -0.0549563453259 |      -0.041944046907 |      -0.385894841744 |    2.38542809975e-05 |        7.85881520452 |       -1.86662002127 |       -14.6271827221 |       -9.26417220859 |  
V(km/s) |    0.00506521883524 |      0.0282973444071 |        1.15324034348 |   -0.000710327804513 |       -1.36632478059 |       0.793573358929 |       -284.500193596 |        12.6616545111 |  
 
 Variances :: 
             |        Per dist(AU) |                  ecc |                  Inc |                 Long |                  Arg |              Mean an |             Epoch(s) |                    a | 
Per dist(AU) |   4.56682666522e-05 |    8.91550355296e-05 |     0.00405506108928 |   -1.95207583767e-06 |    -0.00786511490345 |     -0.0504684359508 |      -0.754460013891 |      0.0269834467181 |  
ecc          |   8.91550355296e-05 |    0.000434611698006 |      0.0172632583274 |   -1.06049866189e-05 |     -0.0223520452646 |      -0.024450553618 |       -4.23704860816 |       0.185402161775 |  
Inc          |    0.00405506108928 |      0.0172632583274 |       0.751397024248 |   -0.000434924543266 |      -0.948696086812 |      -0.531158847057 |        -173.34284702 |        7.50144544655 |  
Long         |  -1.95207583767e-06 |   -1.06049866189e-05 |   -0.000434924543266 |    2.66319745364e-07 |    0.000518484454019 |   -0.000255014589638 |       0.106615415199 |    -0.00473519837591 |  
Arg          |   -0.00786511490345 |     -0.0223520452646 |      -0.948696086812 |    0.000518484454019 |        1.54261361013 |         6.5517784754 |        204.065370362 |       -8.23439774757 |  
Mean an      |    -0.0504684359508 |      -0.024450553618 |      -0.531158847057 |   -0.000255014589638 |         6.5517784754 |        321.478931623 |       -95.8445450036 |        50.6525587942 |  
Epoch(s)     |     -0.754460013891 |       -4.23704860816 |        -173.34284702 |       0.106615415199 |        204.065370362 |       -95.8445450036 |        42722.2173361 |          -1894.69861 |  
a            |     0.0269834467181 |       0.185402161775 |        7.50144544655 |    -0.00473519837591 |       -8.23439774757 |        50.6525587942 |          -1894.69861 |        91.3127147603 |  
 
     Ecarts types :: 
Per dist(AU) :     0.0067578300254 
ecc          :     0.0208473427085 
Inc          :      0.866831600859 
Long         :   0.000516061765067 
Arg          :       1.24201997171 
Mean an      :       17.9298335637 
Epoch(s)     :       206.693534819 
a            :       9.55576866402 
